[{"OBJECT_NAME":"STARLINK-34721","OBJECT_ID":"2025-161AA","EPOCH":"2026-03-09T21:07:46.343136","MEAN_MOTION":15.30208248,"ECCENTRICITY":0.00011796,"INCLINATION":53.16,"RA_OF_ASC_NODE":292.9834,"ARG_OF_PERICENTER":167.4427,"MEAN_ANOMALY":192.6603,"EPHEMERIS_TYPE":0,"CLASSIFICATION_TYPE":"U","NORAD_CAT_ID":65039,"ELEMENT_SET_NO":999,"REV_AT_EPOCH":3426,"BSTAR":0.00085484728,"MEAN_MOTION_DOT":0.00025051,"MEAN_MOTION_DDOT":0},{"OBJECT_NAME":"TRANSPORTER-1 OBJECT M","OBJECT_ID":"2021-006M","EPOCH":"2026-03-09T22:05:37.843296","MEAN_MOTION":15.3227845,"ECCENTRICITY":0.00102759,"INCLINATION":97.2377,"RA_OF_ASC_NODE":116.7915,"ARG_OF_PERICENTER":187.5492,"MEAN_ANOMALY":172.5597,"EPHEMERIS_TYPE":0,"CLASSIFICATION_TYPE":"U","NORAD_CAT_ID":47424,"ELEMENT_SET_NO":999,"REV_AT_EPOCH":28439,"BSTAR":0.00023985652,"MEAN_MOTION_DOT":7.411e-5,"MEAN_MOTION_DDOT":0}]
